{
  "norad_id": 67122,
  "name": "STARLINK-36188",
  "history": [
    {
      "epoch": "2026-03-28T15:38:48.566400",
      "apogee_km": 483.2807032084538,
      "perigee_km": 482.7987741543293,
      "latitude_deg": -34.021395825230655,
      "longitude_deg": -125.21270400006324,
      "semi_major_axis_km": 6861.176738681392,
      "eccentricity": 3.512e-05,
      "inclination_deg": 43.0038,
      "raan_deg": 62.1317,
      "arg_perigee_deg": 353.9468,
      "mean_anomaly_deg": 6.1379,
      "mean_motion_rev_day": 15.27583125
    }
  ]
}