{"fetched_at":"2026-03-29T16:36:15Z","count":15609,"tles":[{"name":"STARLINK-36188","line1":"1 67122U 25299W   26087.65195100  .00030922  00000+0  11284-2 0  9998","line2":"2 67122  43.0038  62.1317 0000351 353.9468   6.1379 15.27583125 16018","category":"Starlink"}]}